start=new Date('2022-12-18T00:00:00.000Z').valueOf();
sats=[{"SITE":"AFETR","CLASSIFICATION_TYPE":"U","DECAY_DATE":null,"REV_AT_EPOCH":"3296","CENTER_NAME":"EARTH","INCLINATION":"53.2172","OBJECT_ID":"2022-052T","PERIOD":"95.438","OBJECT_TYPE":"PAYLOAD","REF_FRAME":"TEME","EPOCH":"2022-12-17T20:39:39.128256","MEAN_ELEMENT_THEORY":"SGP4","MEAN_MOTION_DDOT":"0.0000000000000","NORAD_CAT_ID":"52615","APOAPSIS":"541.877","SEMIMAJOR_AXIS":"6917.897","BSTAR":"-0.00014062000000","LAUNCH_DATE":"2022-05-14","EPHEMERIS_TYPE":"0","FILE":"3707070","MEAN_MOTION_DOT":"-0.00002526","TLE_LINE1":"1 52615U 22052T   22351.86086954 -.00002526  00000-0 -14062-3 0  9992","RCS_SIZE":"LARGE","OBJECT_NAME":"STARLINK-4011","GP_ID":"220758451","COUNTRY_CODE":"US","ELEMENT_SET_NO":"999","MEAN_ANOMALY":"319.6601","TLE_LINE2":"2 52615  53.2172 171.5962 0003058  40.4618 319.6601 15.08834695 32966","MEAN_MOTION":"15.08834695","ARG_OF_PERICENTER":"40.4618","TIME_SYSTEM":"UTC","RA_OF_ASC_NODE":"171.5962","PERIAPSIS":"537.646","ECCENTRICITY":"0.00030580"},{"APOAPSIS":"541.854","LAUNCH_DATE":"2022-05-14","BSTAR":"0.00000119480000","SEMIMAJOR_AXIS":"6917.904","MEAN_ELEMENT_THEORY":"SGP4","NORAD_CAT_ID":"52616","MEAN_MOTION_DDOT":"0.0000000000000","RCS_SIZE":"LARGE","TLE_LINE1":"1 52616U 22052U   22351.87145301 -.00000270  00000-0  11948-5 0  9991","MEAN_MOTION_DOT":"-0.00000270","OBJECT_NAME":"STARLINK-4015","FILE":"3707070","EPHEMERIS_TYPE":"0","INCLINATION":"53.2163","OBJECT_ID":"2022-052U","SITE":"AFETR","REV_AT_EPOCH":"3318","DECAY_DATE":null,"CLASSIFICATION_TYPE":"U","CENTER_NAME":"EARTH","REF_FRAME":"TEME","OBJECT_TYPE":"PAYLOAD","PERIOD":"95.438","EPOCH":"2022-12-17T20:54:53.540064","RA_OF_ASC_NODE":"156.5538","PERIAPSIS":"537.684","TIME_SYSTEM":"UTC","ECCENTRICITY":"0.00030140","ELEMENT_SET_NO":"999","GP_ID":"220757199","COUNTRY_CODE":"US","ARG_OF_PERICENTER":"45.2110","TLE_LINE2":"2 52616  53.2163 156.5538 0003014  45.2110 314.9127 15.08832255 33187","MEAN_MOTION":"15.08832255","MEAN_ANOMALY":"314.9127"},{"LAUNCH_DATE":"2022-05-14","BSTAR":"0.00007291600000","SEMIMAJOR_AXIS":"6917.863","APOAPSIS":"541.483","NORAD_CAT_ID":"52617","MEAN_MOTION_DDOT":"0.0000000000000","MEAN_ELEMENT_THEORY":"SGP4","OBJECT_NAME":"STARLINK-3996","RCS_SIZE":"LARGE","MEAN_MOTION_DOT":"0.00000872","TLE_LINE1":"1 52617U 22052V   22351.73160376  .00000872  00000-0  72916-4 0  9994","FILE":"3707070","EPHEMERIS_TYPE":"0","OBJECT_ID":"2022-052V","INCLINATION":"53.2164","DECAY_DATE":null,"REV_AT_EPOCH":"3315","CLASSIFICATION_TYPE":"U","CENTER_NAME":"EARTH","SITE":"AFETR","EPOCH":"2022-12-17T17:33:30.564864","OBJECT_TYPE":"PAYLOAD","REF_FRAME":"TEME","PERIOD":"95.437","PERIAPSIS":"537.973","RA_OF_ASC_NODE":"157.1730","TIME_SYSTEM":"UTC","ECCENTRICITY":"0.00025370","ELEMENT_SET_NO":"999","COUNTRY_CODE":"US","GP_ID":"220757449","ARG_OF_PERICENTER":"46.3495","TLE_LINE2":"2 52617  53.2164 157.1730 0002537  46.3495 313.7707 15.08845792 33155","MEAN_MOTION":"15.08845792","MEAN_ANOMALY":"313.7707"},{"ECCENTRICITY":"0.00024340","RA_OF_ASC_NODE":"156.5766","PERIAPSIS":"538.023","TIME_SYSTEM":"UTC","ARG_OF_PERICENTER":"41.8663","MEAN_MOTION":"15.08852563","TLE_LINE2":"2 52618  53.2148 156.5766 0002434  41.8663 318.2515 15.08852563 33176","MEAN_ANOMALY":"318.2515","ELEMENT_SET_NO":"999","GP_ID":"220758700","COUNTRY_CODE":"US","RCS_SIZE":"LARGE","MEAN_MOTION_DOT":"0.00002854","TLE_LINE1":"1 52618U 22052W   22351.86776708  .00002854  00000-0  19726-3 0  9992","OBJECT_NAME":"STARLINK-3983","FILE":"3707070","EPHEMERIS_TYPE":"0","APOAPSIS":"541.391","BSTAR":"0.00019726000000","LAUNCH_DATE":"2022-05-14","SEMIMAJOR_AXIS":"6917.842","MEAN_ELEMENT_THEORY":"SGP4","NORAD_CAT_ID":"52618","MEAN_MOTION_DDOT":"0.0000000000000","REF_FRAME":"TEME","OBJECT_TYPE":"PAYLOAD","PERIOD":"95.437","EPOCH":"2022-12-17T20:49:35.075712","INCLINATION":"53.2148","OBJECT_ID":"2022-052W","SITE":"AFETR","DECAY_DATE":null,"REV_AT_EPOCH":"3317","CENTER_NAME":"EARTH","CLASSIFICATION_TYPE":"U"},{"SITE":"AFETR","DECAY_DATE":null,"REV_AT_EPOCH":"3317","CLASSIFICATION_TYPE":"U","CENTER_NAME":"EARTH","INCLINATION":"53.2177","OBJECT_ID":"2022-052X","PERIOD":"95.438","OBJECT_TYPE":"PAYLOAD","REF_FRAME":"TEME","EPOCH":"2022-12-17T20:40:22.876896","MEAN_ELEMENT_THEORY":"SGP4","MEAN_MOTION_DDOT":"0.0000000000000","NORAD_CAT_ID":"52619","APOAPSIS":"541.838","SEMIMAJOR_AXIS":"6917.884","BSTAR":"0.00018045000000","LAUNCH_DATE":"2022-05-14","EPHEMERIS_TYPE":"0","FILE":"3707070","TLE_LINE1":"1 52619U 22052X   22351.86137589  .00002584  00000-0  18045-3 0  9994","MEAN_MOTION_DOT":"0.00002584","RCS_SIZE":"LARGE","OBJECT_NAME":"STARLINK-3741","GP_ID":"220758951","COUNTRY_CODE":"US","ELEMENT_SET_NO":"999","MEAN_ANOMALY":"312.4918","MEAN_MOTION":"15.08838981","TLE_LINE2":"2 52619  53.2177 156.6119 0003021  47.6330 312.4918 15.08838981 33171","ARG_OF_PERICENTER":"47.6330","TIME_SYSTEM":"UTC","RA_OF_ASC_NODE":"156.6119","PERIAPSIS":"537.659","ECCENTRICITY":"0.00030210"},{"EPHEMERIS_TYPE":"0","FILE":"3707070","MEAN_MOTION_DOT":"-0.00000722","TLE_LINE1":"1 52620U 22052Y   22351.79094772 -.00000722  00000-0 -27233-4 0  9998","RCS_SIZE":"LARGE","OBJECT_NAME":"STARLINK-3975","MEAN_ELEMENT_THEORY":"SGP4","MEAN_MOTION_DDOT":"0.0000000000000","NORAD_CAT_ID":"52620","APOAPSIS":"541.535","SEMIMAJOR_AXIS":"6917.853","LAUNCH_DATE":"2022-05-14","BSTAR":"-0.00002723300000","PERIOD":"95.437","REF_FRAME":"TEME","OBJECT_TYPE":"PAYLOAD","EPOCH":"2022-12-17T18:58:57.883008","SITE":"AFETR","DECAY_DATE":null,"CENTER_NAME":"EARTH","REV_AT_EPOCH":"3295","CLASSIFICATION_TYPE":"U","INCLINATION":"53.2173","OBJECT_ID":"2022-052Y","ECCENTRICITY":"0.00026270","TIME_SYSTEM":"UTC","RA_OF_ASC_NODE":"171.9114","PERIAPSIS":"537.901","MEAN_ANOMALY":"316.1107","MEAN_MOTION":"15.08849016","TLE_LINE2":"2 52620  53.2173 171.9114 0002627  44.0094 316.1107 15.08849016 32950","ARG_OF_PERICENTER":"44.0094","GP_ID":"220757699","COUNTRY_CODE":"US","ELEMENT_SET_NO":"999"},{"OBJECT_NAME":"STARLINK-3984","MEAN_MOTION_DOT":"-0.00001611","TLE_LINE1":"1 52621U 22052Z   22351.85304665 -.00001611  00000-0 -83111-4 0  9996","RCS_SIZE":"LARGE","EPHEMERIS_TYPE":"0","FILE":"3707070","SEMIMAJOR_AXIS":"6917.898","BSTAR":"-0.00008311100000","LAUNCH_DATE":"2022-05-14","APOAPSIS":"541.791","MEAN_MOTION_DDOT":"0.0000000000000","NORAD_CAT_ID":"52621","MEAN_ELEMENT_THEORY":"SGP4","EPOCH":"2022-12-17T20:28:23.230560","PERIOD":"95.438","OBJECT_TYPE":"PAYLOAD","REF_FRAME":"TEME","OBJECT_ID":"2022-052Z","INCLINATION":"53.2164","CLASSIFICATION_TYPE":"U","DECAY_DATE":null,"REV_AT_EPOCH":"3317","CENTER_NAME":"EARTH","SITE":"AFETR","ECCENTRICITY":"0.00029310","PERIAPSIS":"537.736","RA_OF_ASC_NODE":"156.6419","TIME_SYSTEM":"UTC","MEAN_MOTION":"15.08834136","TLE_LINE2":"2 52621  53.2164 156.6419 0002931  43.2715 316.8507 15.08834136 33171","ARG_OF_PERICENTER":"43.2715","MEAN_ANOMALY":"316.8507","ELEMENT_SET_NO":"999","COUNTRY_CODE":"US","GP_ID":"220757949"},{"OBJECT_TYPE":"PAYLOAD","REF_FRAME":"TEME","PERIOD":"95.437","EPOCH":"2022-12-17T19:41:20.638464","INCLINATION":"53.2163","OBJECT_ID":"2022-052AA","SITE":"AFETR","REV_AT_EPOCH":"3296","DECAY_DATE":null,"CENTER_NAME":"EARTH","CLASSIFICATION_TYPE":"U","RCS_SIZE":"LARGE","TLE_LINE1":"1 52622U 22052AA  22351.82037776  .00000927  00000-0  76322-4 0  9993","MEAN_MOTION_DOT":"0.00000927","OBJECT_NAME":"STARLINK-4008","FILE":"3707070","EPHEMERIS_TYPE":"0","APOAPSIS":"541.025","LAUNCH_DATE":"2022-05-14","BSTAR":"0.00007632200000","SEMIMAJOR_AXIS":"6917.863","MEAN_ELEMENT_THEORY":"SGP4","NORAD_CAT_ID":"52622","MEAN_MOTION_DDOT":"0.0000000000000","ARG_OF_PERICENTER":"51.5247","MEAN_MOTION":"15.08845832","TLE_LINE2":"2 52622  53.2163 171.7875 0001876  51.5247 308.5913 15.08845832 32964","MEAN_ANOMALY":"308.5913","ELEMENT_SET_NO":"999","GP_ID":"220758201","COUNTRY_CODE":"US","ECCENTRICITY":"0.00018760","RA_OF_ASC_NODE":"171.7875","PERIAPSIS":"538.430","TIME_SYSTEM":"UTC"},{"SEMIMAJOR_AXIS":"6917.955","LAUNCH_DATE":"2022-05-14","BSTAR":"-0.00038434000000","APOAPSIS":"542.067","MEAN_MOTION_DDOT":"0.0000000000000","NORAD_CAT_ID":"52623","MEAN_ELEMENT_THEORY":"SGP4","OBJECT_NAME":"STARLINK-3986","TLE_LINE1":"1 52623U 22052AB  22351.84938286 -.00006397  00000-0 -38434-3 0  9992","MEAN_MOTION_DOT":"-0.00006397","RCS_SIZE":"LARGE","EPHEMERIS_TYPE":"0","FILE":"3707070","OBJECT_ID":"2022-052AB","INCLINATION":"53.2143","DECAY_DATE":null,"CENTER_NAME":"EARTH","REV_AT_EPOCH":"3317","CLASSIFICATION_TYPE":"U","SITE":"AFETR","EPOCH":"2022-12-17T20:23:06.679104","PERIOD":"95.439","REF_FRAME":"TEME","OBJECT_TYPE":"PAYLOAD","PERIAPSIS":"537.573","RA_OF_ASC_NODE":"156.6578","TIME_SYSTEM":"UTC","ECCENTRICITY":"0.00032480","ELEMENT_SET_NO":"999","COUNTRY_CODE":"US","GP_ID":"220758452","MEAN_MOTION":"15.08815543","TLE_LINE2":"2 52623  53.2143 156.6578 0003248  47.5799 312.5468 15.08815543 33177","ARG_OF_PERICENTER":"47.5799","MEAN_ANOMALY":"312.5468"},{"OBJECT_ID":"2022-052AC","INCLINATION":"53.2145","CENTER_NAME":"EARTH","DECAY_DATE":null,"REV_AT_EPOCH":"3317","CLASSIFICATION_TYPE":"U","SITE":"AFETR","EPOCH":"2022-12-17T20:38:59.380800","PERIOD":"95.438","REF_FRAME":"TEME","OBJECT_TYPE":"PAYLOAD","SEMIMAJOR_AXIS":"6917.883","LAUNCH_DATE":"2022-05-14","BSTAR":"0.00003788200000","APOAPSIS":"541.861","MEAN_MOTION_DDOT":"0.0000000000000","NORAD_CAT_ID":"52624","MEAN_ELEMENT_THEORY":"SGP4","OBJECT_NAME":"STARLINK-4009","MEAN_MOTION_DOT":"0.00000314","TLE_LINE1":"1 52624U 22052AC  22351.86040950  .00000314  00000-0  37882-4 0  9995","RCS_SIZE":"LARGE","EPHEMERIS_TYPE":"0","FILE":"3707070","ELEMENT_SET_NO":"999","COUNTRY_CODE":"US","GP_ID":"220757200","MEAN_MOTION":"15.08839017","TLE_LINE2":"2 52624  53.2145 156.6094 0003054  39.3615 320.7598 15.08839017 33171","ARG_OF_PERICENTER":"39.3615","MEAN_ANOMALY":"320.7598","PERIAPSIS":"537.636","RA_OF_ASC_NODE":"156.6094","TIME_SYSTEM":"UTC","ECCENTRICITY":"0.00030540"}];
